STARLINK-30996          
1 59023U 24038A   26068.27030958 -.00001195  00000+0 -33911-4 0  9990
2 59023  43.0041  29.4218 0000498 228.2370 131.8439 15.27572837116064
KUIPER-00204            
1 67145U 25301N   26068.39760395  .00020516  00000+0  79568-3 0  9999
2 67145  51.8870  71.6415 0003071 354.8934   5.2016 15.26088400 13737
